OBJECT_NAME,OBJECT_ID,EPOCH,MEAN_MOTION,ECCENTRICITY,INCLINATION,RA_OF_ASC_NODE,ARG_OF_PERICENTER,MEAN_ANOMALY,EPHEMERIS_TYPE,CLASSIFICATION_TYPE,NORAD_CAT_ID,ELEMENT_SET_NO,REV_AT_EPOCH,BSTAR,MEAN_MOTION_DOT,MEAN_MOTION_DDOT
IRIDIUM 106,2017-003A,2026-07-19T04:32:10.269600,14.34217876,.00023308,86.3937,75.1742,93.6497,266.4966,0,U,41917,999,49779,.20175559E-4,.76E-6,0
IRIDIUM 103,2017-003B,2026-07-19T04:13:54.170688,14.34217520,.00018689,86.3937,75.0785,86.9357,273.2052,0,U,41918,999,49781,-.9839859E-5,-.8E-7,0
IRIDIUM 109,2017-003C,2026-07-19T04:23:02.202432,14.34217441,.00020246,86.3939,75.1361,85.3565,274.7862,0,U,41919,999,49778,-.8534243E-5,-.4E-7,0
IRIDIUM 102,2017-003D,2026-07-19T03:37:22.201824,14.34217349,.00022622,86.3937,75.0725,84.2405,275.9048,0,U,41920,999,49786,.18698427E-4,.72E-6,0
IRIDIUM 105,2017-003E,2026-07-19T02:37:44.961888,14.34217777,.0002082,86.3942,43.5174,81.6184,278.5248,0,U,41921,999,49971,.37012103E-4,.123E-5,0
IRIDIUM 104,2017-003F,2026-07-19T03:55:38.219520,14.34217624,.00019414,86.3937,75.1105,79.6025,280.5389,0,U,41922,999,49785,.17624375E-4,.69E-6,0
IRIDIUM 114,2017-003G,2026-07-19T04:04:46.254720,14.34218272,.00020442,86.3938,75.0909,85.1817,274.9613,0,U,41923,999,49783,.36676561E-4,.122E-5,0
IRIDIUM 108,2017-003H,2026-07-19T06:25:58.487520,14.34217449,.00021088,86.3932,43.3392,85.6143,274.5294,0,U,41924,999,49970,-.2409211E-5,.13E-6,0
IRIDIUM 112,2017-003J,2026-07-19T03:46:30.266400,14.34217512,.00021531,86.3933,74.9366,84.3253,275.8188,0,U,41925,999,49785,.25063741E-4,.9E-6,0
IRIDIUM 111,2017-003K,2026-07-19T03:28:14.209824,14.34217632,.0002066,86.3934,75.0131,86.7553,273.3879,0,U,41926,999,49783,-.2326848E-5,.13E-6,0
IRIDIUM 113,2017-039A,2026-07-19T06:20:19.172256,14.34217686,.00021264,86.3992,308.7727,92.8487,267.2952,0,U,42803,999,47578,.13205631E-4,.57E-6,0
IRIDIUM 123,2017-039B,2026-07-18T21:17:14.938944,14.34217157,.00020549,86.3991,340.3866,97.2794,262.8635,0,U,42804,999,47449,-.9057574E-5,-.6E-7,0
IRIDIUM 120,2017-039C,2026-07-19T06:11:11.241600,14.34217494,.00023669,86.3980,308.5535,98.3041,261.8424,0,U,42805,999,47577,.8092496E-5,.42E-6,0
IRIDIUM 115,2017-039D,2026-07-19T06:54:51.846912,14.43278961,.00023024,86.4517,308.6741,99.2811,260.8650,0,U,42806,999,47889,.49978011E-4,.188E-5,0
IRIDIUM 118,2017-039E,2026-07-19T03:04:18.944256,14.34218333,.00022059,86.3997,340.2833,92.4383,267.7065,0,U,42807,999,47452,.37878772E-4,.126E-5,0
IRIDIUM 117,2017-039F,2026-07-19T03:31:42.901248,14.34217676,.00021616,86.3996,340.2329,94.2355,265.9088,0,U,42808,999,47455,.15807849E-4,.64E-6,0
IRIDIUM 126,2017-039G,2026-07-19T02:27:46.952928,14.34217683,.00020947,86.3997,340.3031,92.9887,267.1549,0,U,42809,999,47452,.5741875E-5,.36E-6,0
IRIDIUM 124,2017-039H,2026-07-19T05:19:30.559872,14.43275066,.00022442,86.4478,276.9651,96.9794,263.1662,0,U,42810,999,47973,.31304866E-4,.125E-5,0
IRIDIUM 128,2017-039J,2026-07-19T00:33:58.982112,14.34217853,.000229,86.3970,11.8358,93.6254,266.5204,0,U,42811,999,47454,.3391706E-4,.115E-5,0
IRIDIUM 121,2017-039K,2026-07-19T02:55:10.988544,14.34217514,.0002263,86.3998,340.3230,93.2703,266.8752,0,U,42812,999,47440,-.1950989E-5,.14E-6,0
IRIDIUM 133,2017-061A,2026-07-19T04:40:34.758336,14.34218081,.00022212,86.3970,11.8828,91.6725,268.4725,0,U,42955,999,45936,.31416351E-4,.108E-5,0
IRIDIUM 100,2017-061B,2026-07-18T23:30:02.858400,14.34218142,.00022184,86.3969,11.8908,90.8092,269.3358,0,U,42956,999,45933,.2985704E-4,.103E-5,0
IRIDIUM 122,2017-061C,2026-07-19T00:24:50.676480,14.34216533,.00021245,86.3970,11.8751,91.2065,268.9374,0,U,42957,999,45934,.10216684E-4,.48E-6,0
IRIDIUM 129,2017-061D,2026-07-18T23:20:54.844800,14.34215956,.00020888,86.3970,11.9611,86.1236,274.0199,0,U,42958,999,45935,.16470532E-4,.66E-6,0
IRIDIUM 119,2017-061E,2026-07-19T05:17:06.961344,14.34217650,.00021174,86.3971,11.8535,91.8386,268.3052,0,U,42959,999,45940,.29510254E-4,.102E-5,0
IRIDIUM 107,2017-061F,2026-07-19T05:44:30.745536,14.34217411,.00021635,86.3973,11.8672,97.0624,263.0818,0,U,42960,999,45941,.5991689E-5,.37E-6,0
IRIDIUM 132,2017-061G,2026-07-19T04:13:10.892928,14.34217615,.00021882,86.3971,11.8729,91.3743,268.7703,0,U,42961,999,45940,.31694162E-4,.109E-5,0
IRIDIUM 136,2017-061H,2026-07-19T04:58:50.848608,14.34218142,.00022577,86.3971,11.8665,90.7167,269.4287,0,U,42962,999,45942,.30278609E-4,.105E-5,0
IRIDIUM 139,2017-061J,2026-07-19T00:06:34.939584,14.34218066,.00022639,86.3973,12.0137,92.4202,267.7253,0,U,42963,999,45940,.30731929E-4,.106E-5,0
IRIDIUM 125,2017-061K,2026-07-18T23:48:18.820800,14.34218374,.00017093,86.3974,12.0808,97.3980,262.7410,0,U,42964,999,45941,.31411725E-4,.108E-5,0
