IRIDIUM 106             
1 41917U 17003A   26200.18900775  .00000076  00000+0  20176-4 0  9992
2 41917  86.3937  75.1742 0002330  93.6497 266.4966 14.34217876497790
IRIDIUM 103             
1 41918U 17003B   26200.17632142 -.00000008  00000+0 -98399-5 0  9992
2 41918  86.3937  75.0785 0001868  86.9357 273.2052 14.34217520497813
IRIDIUM 109             
1 41919U 17003C   26200.18266438 -.00000004  00000+0 -85342-5 0  9995
2 41919  86.3939  75.1361 0002024  85.3565 274.7862 14.34217441497789
IRIDIUM 102             
1 41920U 17003D   26200.15095141  .00000072  00000+0  18698-4 0  9997
2 41920  86.3937  75.0725 0002262  84.2405 275.9048 14.34217349497862
IRIDIUM 105             
1 41921U 17003E   26200.10954817  .00000123  00000+0  37012-4 0  9995
2 41921  86.3942  43.5174 0002082  81.6184 278.5248 14.34217777499714
IRIDIUM 104             
1 41922U 17003F   26200.16363680  .00000069  00000+0  17624-4 0  9990
2 41922  86.3937  75.1105 0001941  79.6025 280.5389 14.34217624497851
IRIDIUM 114             
1 41923U 17003G   26200.16997980  .00000122  00000+0  36677-4 0  9996
2 41923  86.3938  75.0909 0002044  85.1817 274.9613 14.34218272497835
IRIDIUM 108             
1 41924U 17003H   26200.26803805  .00000013  00000+0 -24092-5 0  9999
2 41924  86.3932  43.3392 0002108  85.6143 274.5294 14.34217449499706
IRIDIUM 112             
1 41925U 17003J   26200.15729475  .00000090  00000+0  25064-4 0  9991
2 41925  86.3933  74.9366 0002153  84.3253 275.8188 14.34217512497858
IRIDIUM 111             
1 41926U 17003K   26200.14460891  .00000013  00000+0 -23268-5 0  9996
2 41926  86.3934  75.0131 0002066  86.7553 273.3879 14.34217632497835
IRIDIUM 113             
1 42803U 17039A   26200.26411079  .00000057  00000+0  13206-4 0  9994
2 42803  86.3992 308.7727 0002126  92.8487 267.2952 14.34217686475785
IRIDIUM 123             
1 42804U 17039B   26199.88697846 -.00000006  00000+0 -90576-5 0  9990
2 42804  86.3991 340.3866 0002054  97.2794 262.8635 14.34217157474490
IRIDIUM 120             
1 42805U 17039C   26200.25776900  .00000042  00000+0  80925-5 0  9999
2 42805  86.3980 308.5535 0002366  98.3041 261.8424 14.34217494475772
IRIDIUM 115             
1 42806U 17039D   26200.28810008  .00000188  00000+0  49978-4 0  9994
2 42806  86.4517 308.6741 0002302  99.2811 260.8650 14.43278961478897
IRIDIUM 118             
1 42807U 17039E   26200.12799704  .00000126  00000+0  37879-4 0  9996
2 42807  86.3997 340.2833 0002205  92.4383 267.7065 14.34218333474523
IRIDIUM 117             
1 42808U 17039F   26200.14702432  .00000064  00000+0  15808-4 0  9990
2 42808  86.3996 340.2329 0002161  94.2355 265.9088 14.34217676474550
IRIDIUM 126             
1 42809U 17039G   26200.10262677  .00000036  00000+0  57419-5 0  9993
2 42809  86.3997 340.3031 0002094  92.9887 267.1549 14.34217683474524
IRIDIUM 124             
1 42810U 17039H   26200.22188148  .00000125  00000+0  31305-4 0  9992
2 42810  86.4478 276.9651 0002244  96.9794 263.1662 14.43275066479730
IRIDIUM 128             
1 42811U 17039J   26200.02359933  .00000115  00000+0  33917-4 0  9993
2 42811  86.3970  11.8358 0002290  93.6254 266.5204 14.34217853474546
IRIDIUM 121             
1 42812U 17039K   26200.12165496  .00000014  00000+0 -19510-5 0  9997
2 42812  86.3998 340.3230 0002263  93.2703 266.8752 14.34217514474401
IRIDIUM 133             
1 42955U 17061A   26200.19484674  .00000108  00000+0  31416-4 0  9990
2 42955  86.3970  11.8828 0002221  91.6725 268.4725 14.34218081459368
IRIDIUM 100             
1 42956U 17061B   26199.97919975  .00000103  00000+0  29857-4 0  9992
2 42956  86.3969  11.8908 0002218  90.8092 269.3358 14.34218142459337
IRIDIUM 122             
1 42957U 17061C   26200.01725320  .00000048  00000+0  10217-4 0  9998
2 42957  86.3970  11.8751 0002124  91.2065 268.9374 14.34216533459343
IRIDIUM 129             
1 42958U 17061D   26199.97285700  .00000066  00000+0  16471-4 0  9992
2 42958  86.3970  11.9611 0002088  86.1236 274.0199 14.34215956459354
IRIDIUM 119             
1 42959U 17061E   26200.22021946  .00000102  00000+0  29510-4 0  9993
2 42959  86.3971  11.8535 0002117  91.8386 268.3052 14.34217650459405
IRIDIUM 107             
1 42960U 17061F   26200.23924474  .00000037  00000+0  59917-5 0  9996
2 42960  86.3973  11.8672 0002163  97.0624 263.0818 14.34217411459413
IRIDIUM 132             
1 42961U 17061G   26200.17582052  .00000109  00000+0  31694-4 0  9993
2 42961  86.3971  11.8729 0002188  91.3743 268.7703 14.34217615459401
IRIDIUM 136             
1 42962U 17061H   26200.20753297  .00000105  00000+0  30279-4 0  9993
2 42962  86.3971  11.8665 0002257  90.7167 269.4287 14.34218142459424
IRIDIUM 139             
1 42963U 17061J   26200.00457106  .00000106  00000+0  30732-4 0  9997
2 42963  86.3973  12.0137 0002263  92.4202 267.7253 14.34218066459407
IRIDIUM 125             
1 42964U 17061K   26199.99188450  .00000108  00000+0  31412-4 0  9994
2 42964  86.3974  12.0808 0001709  97.3980 262.7410 14.34218374459418
